NORAD_CAT_ID,OBJECT_NAME,OBJECT_TYPE,EPOCH,MEAN_MOTION,ECCENTRICITY,INCLINATION,RA_OF_ASC_NODE,ARG_OF_PERICENTER,MEAN_ANOMALY,BSTAR,MEAN_MOTION_DOT,MEAN_MOTION_DDOT,TLE_LINE0,TLE_LINE1,TLE_LINE2,SEMIMAJOR_AXIS,PERIOD,APOGEE,PERIGEE,DECAYED
54006.0,STARLINK-5096,PAYLOAD,2023-03-26 03:24:08,15.08817018,0.0001309,53.2186,19.9712,87.7682,272.346,0.00019376,2.795e-05,0.0,0 STARLINK-5096,1 54006U 22125AU  23085.14176475  .00002795  00000-0  19376-3 0  9992,2 54006  53.2186  19.9712 0001309  87.7682 272.3460 15.08817018 26542,6917.951,95.439,540.721,538.91,0.0
54006.0,STARLINK-5096,PAYLOAD,2023-03-26 04:59:31,15.0882266,0.0001293,53.2188,19.6737,89.6879,270.4261,-5.3035e-05,-1.131e-05,0.0,0 STARLINK-5096,1 54006U 22125AU  23085.20800413 -.00001131  00000-0 -53035-4 0  9991,2 54006  53.2188  19.6737 0001293  89.6879 270.4261 15.08822660 26490,6917.933,95.439,540.693,538.904,0.0
54006.0,STARLINK-5096,PAYLOAD,2023-03-27 04:50:19,15.08830644,0.0001488,53.2184,15.2148,86.0106,274.1056,0.00086842,0.00013556,0.0,0 STARLINK-5096,1 54006U 22125AU  23086.20161698  .00013556  00000-0  86842-3 0  9990,2 54006  53.2184  15.2148 0001488  86.0106 274.1056 15.08830644 26702,6917.909,95.438,540.803,538.745,0.0
54006.0,STARLINK-5096,PAYLOAD,2023-03-27 22:19:33,15.08856653,0.0001501,53.2173,11.942,80.8783,279.2379,0.00078866,0.00012291,0.0,0 STARLINK-5096,1 54006U 22125AU  23086.93025212  .00012291  00000-0  78866-3 0  9993,2 54006  53.2173  11.9420 0001501  80.8783 279.2379 15.08856653 26752,6917.829,95.437,540.733,538.656,0.0
54006.0,STARLINK-5096,PAYLOAD,2023-03-28 04:41:05,15.0886842,0.000134,53.2175,10.7519,90.6588,269.4558,0.00084861,0.00013254,0.0,0 STARLINK-5096,1 54006U 22125AU  23087.19520573  .00013254  00000-0  84861-3 0  9994,2 54006  53.2175  10.7519 0001340  90.6588 269.4558 15.08868420 26859,6917.794,95.436,540.586,538.732,0.0
54006.0,STARLINK-5096,PAYLOAD,2023-03-28 18:59:34,15.08854365,0.0001987,53.2179,8.0753,87.2234,272.8985,0.00031809,4.78e-05,0.0,0 STARLINK-5096,1 54006U 22125AU  23087.79136634  .00004780  00000-0  31809-3 0  9999,2 54006  53.2179   8.0753 0001987  87.2234 272.8985 15.08854365 26945,6917.836,95.437,541.076,538.327,0.0
54006.0,STARLINK-5096,PAYLOAD,2023-03-29 04:31:52,15.08863604,0.0001333,53.2183,6.293,69.1247,290.9888,0.0010264,0.00016095,0.0,0 STARLINK-5096,1 54006U 22125AU  23088.18880261  .00016095  00000-0  10264-2 0  9998,2 54006  53.2183   6.2930 0001333  69.1247 290.9888 15.08863604 26944,6917.808,95.436,540.595,538.751,0.0
54006.0,STARLINK-5096,PAYLOAD,2023-03-30 01:11:54,15.08842027,0.0001371,53.2181,2.4279,91.9567,268.1582,0.0010964,0.00017205,0.0,0 STARLINK-5096,1 54006U 22125AU  23089.04993241  .00017205  00000-0  10964-2 0  9998,2 54006  53.2181   2.4279 0001371  91.9567 268.1582 15.08842027 27132,6917.874,95.437,540.688,538.791,0.0
54006.0,STARLINK-5096,PAYLOAD,2023-03-30 10:44:13,15.08843033,0.000137,53.2181,0.6443,94.3816,265.7333,0.0008159,0.00012722,0.0,0 STARLINK-5096,1 54006U 22125AU  23089.44737372  .00012722  00000-0  81590-3 0  9996,2 54006  53.2181   0.6443 0001370  94.3816 265.7333 15.08843033 27199,6917.871,95.437,540.684,538.788,0.0
54006.0,STARLINK-5096,PAYLOAD,2023-03-31 04:13:26,15.08876404,0.0001341,53.2189,357.373,104.6492,255.4649,0.0015732,0.00024863,0.0,0 STARLINK-5096,1 54006U 22125AU  23090.17600520  .00024863  00000-0  15732-2 0  9995,2 54006  53.2189 357.3730 0001341 104.6492 255.4649 15.08876404 27308,6917.769,95.435,540.562,538.706,0.0
54006.0,STARLINK-5096,PAYLOAD,2023-04-01 02:28:51,15.08848159,0.0001147,53.218,353.2119,81.7486,278.3636,0.00078178,0.00012179,0.0,0 STARLINK-5096,1 54006U 22125AU  23091.10336989  .00012179  00000-0  78178-3 0  9995,2 54006  53.2180 353.2119 0001147  81.7486 278.3636 15.08848159 27448,6917.855,95.437,540.514,538.927,0.0
54006.0,STARLINK-5096,PAYLOAD,2023-04-02 00:44:15,15.08836783,0.0001041,53.2179,349.0481,78.7949,281.316,0.001199,0.00018844,0.0,0 STARLINK-5096,1 54006U 22125AU  23092.03074066  .00018844  00000-0  11990-2 0  9996,2 54006  53.2179 349.0481 0001041  78.7949 281.3160 15.08836783 27585,6917.89,95.438,540.475,539.035,0.0
54006.0,STARLINK-5096,PAYLOAD,2023-04-02 16:38:07,15.08848037,0.0001316,53.2175,346.0771,68.8301,291.2831,0.00089259,0.00013949,0.0,0 STARLINK-5096,1 54006U 22125AU  23092.69314235  .00013949  00000-0  89259-3 0  9998,2 54006  53.2175 346.0771 0001316  68.8301 291.2831 15.08848037 27688,6917.856,95.437,540.631,538.81,0.0
54006.0,STARLINK-5096,PAYLOAD,2023-04-02 21:24:16,15.08848789,0.0001278,53.2179,345.1837,62.1256,297.9866,0.00071171,0.0001106,0.0,0 STARLINK-5096,1 54006U 22125AU  23092.89186180  .00011060  00000-0  71171-3 0  9992,2 54006  53.2179 345.1837 0001278  62.1256 297.9866 15.08848789 27650,6917.854,95.437,540.603,538.834,0.0
54006.0,STARLINK-5096,PAYLOAD,2023-04-03 02:10:25,15.08855982,0.0001052,53.2164,344.2897,84.5708,275.5404,0.00079171,0.0001234,0.0,0 STARLINK-5096,1 54006U 22125AU  23093.09057792  .00012340  00000-0  79171-3 0  9991,2 54006  53.2164 344.2897 0001052  84.5708 275.5404 15.08855982 27686,6917.832,95.437,540.424,538.969,0.0
54006.0,STARLINK-5096,PAYLOAD,2023-04-03 16:28:54,15.08842352,0.0001277,53.2173,341.6146,79.6166,280.497,0.00022638,3.317e-05,0.0,0 STARLINK-5096,1 54006U 22125AU  23093.68674122  .00003317  00000-0  22638-3 0  9998,2 54006  53.2173 341.6146 0001277  79.6166 280.4970 15.08842352 27833,6917.873,95.437,540.622,538.855,0.0
54006.0,STARLINK-5096,PAYLOAD,2023-04-03 21:15:03,15.08843486,0.0001099,53.2173,340.7221,80.9025,279.2091,0.00032164,4.835e-05,0.0,0 STARLINK-5096,1 54006U 22125AU  23093.88546095  .00004835  00000-0  32164-3 0  9998,2 54006  53.2173 340.7221 0001099  80.9025 279.2091 15.08843486 27804,6917.87,95.437,540.495,538.974,0.0
54006.0,STARLINK-5096,PAYLOAD,2023-04-04 02:01:13,15.0884888,0.0001126,53.2168,339.8294,72.1335,287.978,0.00059782,9.241e-05,0.0,0 STARLINK-5096,1 54006U 22125AU  23094.08418051  .00009241  00000-0  59782-3 0  9992,2 54006  53.2168 339.8294 0001126  72.1335 287.9780 15.08848880 27832,6917.853,95.437,540.497,538.939,0.0
54006.0,STARLINK-5096,PAYLOAD,2023-04-04 21:05:50,15.08847618,0.0001209,53.2165,336.2602,74.0483,286.0643,0.00036229,5.484e-05,0.0,0 STARLINK-5096,1 54006U 22125AU  23094.87905965  .00005484  00000-0  36229-3 0  9990,2 54006  53.2165 336.2602 0001209  74.0483 286.0643 15.08847618 27959,6917.857,95.437,540.558,538.886,0.0
54006.0,STARLINK-5096,PAYLOAD,2023-04-05 01:51:59,15.0885145,0.0001163,53.2166,335.3681,74.6289,285.4832,0.00033568,5.06e-05,0.0,0 STARLINK-5096,1 54006U 22125AU  23095.07777746  .00005060  00000-0  33568-3 0  9990,2 54006  53.2166 335.3681 0001163  74.6289 285.4832 15.08851450 28049,6917.845,95.437,540.515,538.906,0.0
54006.0,STARLINK-5096,PAYLOAD,2023-04-05 20:56:37,15.08847836,0.0001089,53.217,331.798,84.9858,275.1259,0.00016043,2.267e-05,0.0,0 STARLINK-5096,1 54006U 22125AU  23095.87265527  .00002267  00000-0  16043-3 0  9992,2 54006  53.2170 331.7980 0001089  84.9858 275.1259 15.08847836 28108,6917.856,95.437,540.475,538.968,0.0
54006.0,STARLINK-5096,PAYLOAD,2023-04-06 00:07:23,15.08853206,0.0001055,53.2165,331.2044,82.4897,277.6215,0.00024381,3.596e-05,0.0,0 STARLINK-5096,1 54006U 22125AU  23096.00513252  .00003596  00000-0  24381-3 0  9999,2 54006  53.2165 331.2044 0001055  82.4897 277.6215 15.08853206 28182,6917.84,95.437,540.435,538.975,0.0
54006.0,STARLINK-5096,PAYLOAD,2023-04-06 22:22:47,15.08839267,0.0001269,53.2181,327.0452,83.0207,277.093,-8.5299e-05,-1.645e-05,0.0,0 STARLINK-5096,1 54006U 22125AU  23096.93249777 -.00001645  00000-0 -85299-4 0  9990,2 54006  53.2181 327.0452 0001269  83.0207 277.0930 15.08839267 28263,6917.883,95.438,540.626,538.87,0.0
54006.0,STARLINK-5096,PAYLOAD,2023-04-07 01:33:34,15.0883823,0.0001225,53.2175,326.4491,93.8538,266.2594,-1.8049e-05,-5.75e-06,0.0,0 STARLINK-5096,1 54006U 22125AU  23097.06497948 -.00000575  00000-0 -18049-4 0  9990,2 54006  53.2175 326.4491 0001225  93.8538 266.2594 15.08838230 28344,6917.886,95.438,540.598,538.903,0.0
54006.0,STARLINK-5096,PAYLOAD,2023-04-07 23:48:58,15.08844219,0.0001053,53.2166,322.2848,86.3794,273.7318,0.00016389,2.322e-05,0.0,0 STARLINK-5096,1 54006U 22125AU  23097.99233869  .00002322  00000-0  16389-3 0  9996,2 54006  53.2166 322.2848 0001053  86.3794 273.7318 15.08844219 28424,6917.867,95.437,540.461,539.004,0.0
54006.0,STARLINK-5096,PAYLOAD,2023-04-09 01:15:08,15.08843156,0.0001228,53.2166,317.5264,78.9759,281.1371,0.00017289,2.465e-05,0.0,0 STARLINK-5096,1 54006U 22125AU  23099.05218237  .00002465  00000-0  17289-3 0  9995,2 54006  53.2166 317.5264 0001228  78.9759 281.1371 15.08843156 28640,6917.871,95.437,540.585,538.886,0.0
54006.0,STARLINK-5096,PAYLOAD,2023-04-09 20:19:46,15.08845375,0.000137,53.2171,313.9571,81.9057,278.209,3.7391e-05,3.07e-06,0.0,0 STARLINK-5096,1 54006U 22125AU  23099.84706241  .00000307  00000-0  37391-4 0  9999,2 54006  53.2171 313.9571 0001370  81.9057 278.2090 15.08845375 28707,6917.864,95.437,540.677,538.781,0.0
54006.0,STARLINK-5096,PAYLOAD,2023-04-09 23:30:32,15.08843922,0.0001185,53.2156,313.3621,96.1418,263.9709,0.00013787,1.907e-05,0.0,0 STARLINK-5096,1 54006U 22125AU  23099.97954304  .00001907  00000-0  13787-3 0  9997,2 54006  53.2156 313.3621 0001185  96.1418 263.9709 15.08843922 28785,6917.868,95.437,540.553,538.914,0.0
54006.0,STARLINK-5096,PAYLOAD,2023-04-10 13:49:00,15.08841118,0.0001205,53.2153,310.6859,98.7553,261.3575,0.00014454,2.013e-05,0.0,0 STARLINK-5096,1 54006U 22125AU  23100.57570578  .00002013  00000-0  14454-3 0  9994,2 54006  53.2153 310.6859 0001205  98.7553 261.3575 15.08841118 28818,6917.877,95.437,540.576,538.908,0.0
54006.0,STARLINK-5096,PAYLOAD,2023-04-10 20:10:33,15.08844114,0.0001247,53.2154,309.4969,89.8399,270.2736,0.00018538,2.664e-05,0.0,0 STARLINK-5096,1 54006U 22125AU  23100.84066455  .00002664  00000-0  18538-3 0  9997,2 54006  53.2154 309.4969 0001247  89.8399 270.2736 15.08844114 28853,6917.868,95.437,540.595,538.87,0.0
